STARLINK-37410          
1 68823U 26089X   26117.59905544 -.00771824  21317-3 -11857-2 0  9992
2 68823  97.2846 322.7608 0001870 105.2336 254.9152 16.04325637   723
