{
  "norad_id": 68823,
  "name": "STARLINK-37410",
  "history": [
    {
      "epoch": "2026-04-27T14:22:38.390016Z",
      "apogee_km": 263.6972151122791,
      "perigee_km": 261.2136335455807,
      "latitude_deg": 4.3220903602510974e-05,
      "longitude_deg": -108.48572188849178,
      "height_km": 265.98619029828467,
      "semi_major_axis_km": 6640.59242432893,
      "eccentricity": 0.000187,
      "inclination_deg": 97.2846,
      "raan_deg": 322.7608,
      "arg_perigee_deg": 105.2336,
      "mean_anomaly_deg": 254.9152,
      "mean_motion_rev_day": 16.04325637
    }
  ]
}